CRE (WAAS/PRN 138)      
1 28868U 05036A   22317.50785182 -.00000063  00000+0  00000+0 0  9995
2 28868   0.9350  92.1723 0001279 108.9449 287.0080  1.00271628 33300
IOR-W (EGNOS/PRN 126)   
1 28899U 05044A   22317.46180019  .00000020  00000+0  00000+0 0  9993
2 28899   3.6187  38.6544 0003100 206.2586  37.8002  1.00272504 62342
QZS-1 (QZSS/PRN 183)    
1 37158U 10045A   22316.36229814 -.00000104  00000+0  00000+0 0  9997
2 37158  42.4905 131.3468 0749953 270.3210 278.2517  1.00272049 44575
GSAT-8 (GAGAN/PRN 127)  
1 37605U 11022A   22317.53179362  .00000095  00000+0  00000+0 0  9990
2 37605   0.0648  97.6890 0008166 157.6724  43.8181  1.00270856 40067
LUCH 5A (SDCM/PRN 140)  
1 37951U 11074B   22317.65675250 -.00000036  00000+0  00000+0 0  9997
2 37951   5.3917  94.8630 0003248 118.3554 242.8312  1.00270613 40046
SES-5 (EGNOS/PRN 136)   
1 38652U 12036A   22317.52168249  .00000044  00000+0  00000+0 0  9994
2 38652   0.0586 293.1011 0002319 298.7387  13.5809  1.00270842 31331
GSAT-10 (GAGAN/PRN 128) 
1 38779U 12051B   22317.46563544 -.00000156  00000+0  00000+0 0  9996
2 38779   0.0629  99.8432 0004320 156.9535  46.4265  1.00272763 36960
LUCH 5B (SDCM/PRN 125)  
1 38977U 12061A   22317.08729991 -.00000125  00000+0  00000+0 0  9991
2 38977   7.6129  61.4782 0003999 126.8271 238.9708  1.00272349 37023
ASTRA 5B (EGNOS/PRN 123)
1 39617U 14011B   22317.45526281  .00000165  00000+0  00000+0 0  9991
2 39617   0.0511 314.8309 0004168 273.2028  19.9549  1.00272423 31514
LUCH 5V (SDCM/PRN 141)  
1 39727U 14023A   22317.46798889 -.00000259  00000+0  00000+0 0  9997
2 39727   1.8532  76.8049 0003339 178.2501  60.7798  1.00272397 31209
GSAT-15 (GAGAN/PRN 139) 
1 41028U 15065A   22317.40326953 -.00000248  00000+0  00000+0 0  9992
2 41028   0.0023 248.2717 0002410 319.6666  83.2680  1.00272673 25650
E 117 W B (WAAS/PRN 131)
1 41589U 16038B   22317.50168538 -.00000001  00000+0  00000+0 0  9996
2 41589   0.0109 137.4757 0000380 332.7505   5.9927  1.00268374 23557
SES-15 (WAAS/PRN 133)   
1 42709U 17026A   22317.44150569  .00000070  00000+0  00000+0 0  9992
2 42709   0.0216 353.3495 0000660 243.5272 205.4742  1.00270991 20995
QZS-2 (QZSS/PRN 184)    
1 42738U 17028A   22317.25227199 -.00000213  00000+0  00000+0 0  9999
2 42738  41.5295 262.0627 0764043 269.0480 110.3690  1.00295462 19997
QZS-3 (QZSS/PRN 189)    
1 42917U 17048A   22317.47435192 -.00000338  00000+0  00000+0 0  9996
2 42917   0.0538 193.7864 0002341  59.3233  97.2688  1.00270093 19107
QZS-4 (QZSS/PRN 185)    
1 42965U 17062A   22317.48069315 -.00000332  00000+0  00000+0 0  9990
2 42965  40.7312   0.2085 0750852 270.7076  93.0253  1.00266173 18665
GALAXY 30 (WAAS/PRN 135)
1 46114U 20056C   22317.52989102  .00000047  00000+0  00000+0 0  9999
2 46114   0.0163 287.7534 0002340 303.1512 247.5173  1.00272956  8142
